
# Worst residual: 209.12 km
# MJD 58994.000000 (2020 May 25  0:00)
ZTF09oP = ZTF09mO = A10jyaB
1 99999U 00000    20146.49919926  .00000000  00000-0  00000-0 0  7524
2 99999 043.0819 324.8803 8584514 094.5207 198.8299 00.98351352    04

# Worst residual: 214.56 km
# MJD 58995.000000 (2020 May 26  0:00)
ZTF09oP = ZTF09mO = A10jyaB
1 99999U 00000    20147.49919926  .00000000  00000-0  00000-0 0  7525
2 99999 043.1951 323.1528 8553844 096.8861 192.7904 00.98359705    07

# Worst residual: 203.95 km
# MJD 58996.000000 (2020 May 27  0:00)
ZTF09oP = ZTF09mO = A10jyaB
1 99999U 00000    20148.49919926  .00000000  00000-0  00000-0 0  7526
2 99999 043.3398 321.5362 8522611 099.1792 186.7390 00.98370382    05

# Worst residual: 175.57 km
# MJD 58997.000000 (2020 May 28  0:00)
ZTF09oP = ZTF09mO = A10jyaB
1 99999U 00000    20149.49919926  .00000000  00000-0  00000-0 0  7527
2 99999 043.5190 319.9885 8490677 101.4391 180.6434 00.98380732    08

# Worst residual: 188.70 km
# MJD 58998.000000 (2020 May 29  0:00)
ZTF09oP = ZTF09mO = A10jyaB
1 99999U 00000    20150.49919926  .00000000  00000-0  00000-0 0  7529
2 99999 043.7211 318.5491 8462729 103.6378 174.4622 00.98427294    03

# Worst residual: 236.89 km
# MJD 58999.000000 (2020 May 30  0:00)
ZTF09oP = ZTF09mO = A10jyaB
1 99999U 00000    20151.49919926  .00000000  00000-0  00000-0 0  7520
2 99999 043.9366 317.2698 8437082 105.7232 168.2621 00.98491395    00

# Worst residual: 310.10 km
# MJD 59000.000000 (2020 May 31  0:00)
ZTF09oP = ZTF09mO = A10jyaB
1 99999U 00000    20152.49919926  .00000000  00000-0  00000-0 0  7521
2 99999 044.1732 316.0163 8407824 107.7749 162.0597 00.98522163    02

# Worst residual: 346.55 km
# MJD 59001.000000 (2020 Jun  1  0:00)
ZTF09oP = ZTF09mO = A10jyaB
1 99999U 00000    20153.49919926  .00000000  00000-0  00000-0 0  7522
2 99999 044.4257 314.8464 8377847 109.7814 155.8053 00.98553040    08

# Worst residual: 371.42 km
# MJD 59002.000000 (2020 Jun  2  0:00)
ZTF09oP = ZTF09mO = A10jyaB
1 99999U 00000    20154.49919926  .00000000  00000-0  00000-0 0  7523
2 99999 044.6892 313.7253 8347136 111.7576 149.5344 00.98607382    07

# Worst residual: 422.71 km
# MJD 59003.000000 (2020 Jun  3  0:00)
ZTF09oP = ZTF09mO = A10jyaB
1 99999U 00000    20155.49919926  .00000000  00000-0  00000-0 0  7524
2 99999 044.9722 312.6859 8313717 113.7013 143.1176 00.98593388    01

# Worst residual: 423.28 km
# MJD 59004.000000 (2020 Jun  4  0:00)
ZTF09oP = ZTF09mO = A10jyaB
1 99999U 00000    20156.49919926  .00000000  00000-0  00000-0 0  7525
2 99999 045.2541 311.7171 8281891 115.6249 136.5902 00.98631941    01

# Worst residual: 420.03 km
# MJD 59005.000000 (2020 Jun  5  0:00)
ZTF09oP = ZTF09mO = A10jyaB
1 99999U 00000    20157.49919926  .00000000  00000-0  00000-0 0  7526
2 99999 045.5505 310.8252 8255026 117.5173 129.9870 00.98673999    01

# Worst residual: 411.50 km
# MJD 59006.000000 (2020 Jun  6  0:00)
ZTF09oP = ZTF09mO = A10jyaB
1 99999U 00000    20158.49919926  .00000000  00000-0  00000-0 0  7527
2 99999 045.8296 309.9631 8223244 119.3425 123.4403 00.98749356    00

# Worst residual: 431.77 km
# MJD 59007.000000 (2020 Jun  7  0:00)
ZTF09oP = ZTF09mO = A10jyaB
1 99999U 00000    20159.49919926  .00000000  00000-0  00000-0 0  7528
2 99999 046.1056 309.2369 8193680 121.1375 116.7482 00.98810365    05

# Worst residual: 440.55 km
# MJD 59008.000000 (2020 Jun  8  0:00)
ZTF09oP = ZTF09mO = A10jyaB
1 99999U 00000    20160.49919926  .00000000  00000-0  00000-0 0  7520
2 99999 046.3814 308.5677 8160381 122.9016 110.0115 00.98828555    06

# Worst residual: 441.18 km
# MJD 59009.000000 (2020 Jun  9  0:00)
ZTF09oP = ZTF09mO = A10jyaB
1 99999U 00000    20161.49919926  .00000000  00000-0  00000-0 0  7521
2 99999 046.6343 307.8858 8129712 124.6707 103.2142 00.98902169    06

# Worst residual: 470.28 km
# MJD 59010.000000 (2020 Jun 10  0:00)
ZTF09oP = ZTF09mO = A10jyaB
1 99999U 00000    20162.49919926  .00000000  00000-0  00000-0 0  7522
2 99999 046.9084 307.3193 8101549 126.3709 096.3409 00.98977840    03

# Worst residual: 474.52 km
# MJD 59011.000000 (2020 Jun 11  0:00)
ZTF09oP = ZTF09mO = A10jyaB
1 99999U 00000    20163.49919926  .00000000  00000-0  00000-0 0  7523
2 99999 047.1576 306.7899 8074255 128.0770 089.3745 00.99044526    00

# Worst residual: 464.13 km
# MJD 59012.000000 (2020 Jun 12  0:00)
ZTF09oP = ZTF09mO = A10jyaB
1 99999U 00000    20164.49919926  .00000000  00000-0  00000-0 0  7524
2 99999 047.3913 306.3307 8049091 129.7745 082.3143 00.99100318    04

# Worst residual: 473.43 km
# MJD 59013.000000 (2020 Jun 13  0:00)
ZTF09oP = ZTF09mO = A10jyaB
1 99999U 00000    20165.49919926  .00000000  00000-0  00000-0 0  7525
2 99999 047.6401 305.8356 8024999 131.4664 075.2596 00.99191963    06

# Worst residual: 468.63 km
# MJD 59014.000000 (2020 Jun 14  0:00)
ZTF09oP = ZTF09mO = A10jyaB
1 99999U 00000    20166.49919926  .00000000  00000-0  00000-0 0  7526
2 99999 047.8009 305.5043 8000876 133.0508 068.1412 00.99229204    03

# Worst residual: 477.93 km
# MJD 59015.000000 (2020 Jun 15  0:00)
ZTF09oP = ZTF09mO = A10jyaB
1 99999U 00000    20167.49919926  .00000000  00000-0  00000-0 0  7527
2 99999 048.0474 305.1111 7977329 134.7285 060.8670 00.99315112    08

# Worst residual: 454.23 km
# MJD 59016.000000 (2020 Jun 16  0:00)
ZTF09oP = ZTF09mO = A10jyaB
1 99999U 00000    20168.49919926  .00000000  00000-0  00000-0 0  7528
2 99999 048.1885 304.8533 7959041 136.3336 053.4775 00.99365810    09

# Worst residual: 433.69 km
# MJD 59017.000000 (2020 Jun 17  0:00)
ZTF09oP = ZTF09mO = A10jyaB
1 99999U 00000    20169.49919926  .00000000  00000-0  00000-0 0  7529
2 99999 048.3970 304.5180 7939998 138.0085 046.0370 00.99422129    06

# Worst residual: 392.51 km
# MJD 59018.000000 (2020 Jun 18  0:00)
ZTF09oP = ZTF09mO = A10jyaB
1 99999U 00000    20170.49919926  .00000000  00000-0  00000-0 0  7521
2 99999 048.5639 304.2589 7927313 139.6283 038.5120 00.99438598    01

# Worst residual: 351.37 km
# MJD 59019.000000 (2020 Jun 19  0:00)
ZTF09oP = ZTF09mO = A10jyaB
1 99999U 00000    20171.49919926  .00000000  00000-0  00000-0 0  7522
2 99999 048.6669 304.0655 7915014 141.2083 030.9872 00.99457502    05

# Worst residual: 327.93 km
# MJD 59020.000000 (2020 Jun 20  0:00)
ZTF09oP = ZTF09mO = A10jyaB
1 99999U 00000    20172.49919926  .00000000  00000-0  00000-0 0  7523
2 99999 048.7892 303.8702 7900385 142.8512 023.3273 00.99500651    08

# Worst residual: 289.61 km
# MJD 59021.000000 (2020 Jun 21  0:00)
ZTF09oP = ZTF09mO = A10jyaB
1 99999U 00000    20173.49919926  .00000000  00000-0  00000-0 0  7524
2 99999 048.8608 303.7247 7892511 144.4100 015.5741 00.99477888    07

# Worst residual: 287.77 km
# MJD 59022.000000 (2020 Jun 22  0:00)
ZTF09oP = ZTF09mO = A10jyaB
1 99999U 00000    20174.49919926  .00000000  00000-0  00000-0 0  7525
2 99999 048.9234 303.5948 7888955 145.9883 007.7665 00.99446091    00
